     2              NAVIGATION DATA                         RINEX VERSION / TYPE
CCRINEXN V1.6.0 UX  CDDIS               18-NOV-24 23:31     PGM / RUN BY / DATE 
IGS BROADCAST EPHEMERIS FILE                                COMMENT             
    0.2608D-07  0.0000D+00 -0.1192D-06  0.1788D-06          ION ALPHA           
    0.1393D+06 -0.1475D+06  0.6554D+05 -0.1311D+06          ION BETA            
   -0.186264514923D-08-0.177635683940D-14   147456     2341 DELTA-UTC: A0,A1,T,W
    18                                                      LEAP SECONDS        
                                                            END OF HEADER       
23 24 11 17 16  0  0.0 0.365186482668D-03 0.795807864051D-11 0.000000000000D+00
    0.490000000000D+02-0.128000000000D+03 0.372944106048D-08 0.279071577823D+00
   -0.667013227940D-05 0.490542338230D-02 0.868365168571D-05 0.515362969589D+04
    0.576000000000D+05 0.484287738800D-07-0.882595461701D-01 0.633299350738D-07
    0.982122480452D+00 0.225062500000D+03-0.290407923271D+01-0.768067707389D-08
    0.857178562071D-10 0.100000000000D+01 0.234100000000D+04 0.000000000000D+00
    0.200000000000D+01 0.000000000000D+00-0.838190317154D-08 0.305000000000D+03
    0.504180000000D+05 0.400000000000D+01 0.000000000000D+00 0.000000000000D+00
24 24 11 17 16  0  0.0-0.479702837765D-03 0.227373675443D-11 0.000000000000D+00
    0.104000000000D+03-0.837500000000D+01 0.578166940117D-08 0.153861323794D+01
   -0.596046447754D-06 0.162922512973D-01 0.556558370590D-05 0.515368178940D+04
    0.576000000000D+05-0.454485416412D-06 0.193260628385D+01-0.819563865662D-07
    0.933691386623D+00 0.262343750000D+03 0.103073566955D+01-0.858392898367D-08
   -0.112861844006D-09 0.100000000000D+01 0.234100000000D+04 0.000000000000D+00
    0.200000000000D+01 0.000000000000D+00 0.232830643654D-08 0.104000000000D+03
    0.504180000000D+05 0.400000000000D+01 0.000000000000D+00 0.000000000000D+00
25 24 11 17 16  0  0.0 0.498935580254D-03-0.341060513165D-12 0.000000000000D+00
    0.280000000000D+02 0.459062500000D+02 0.470233872843D-08-0.253823981702D+00
    0.247359275818D-05 0.120725913439D-01 0.107772648335D-04 0.515370986366D+04
    0.576000000000D+05-0.745058059692D-07 0.306008766937D+01 0.176951289177D-06
    0.949834074665D+00 0.165375000000D+03 0.109874329905D+01-0.810890919719D-08
   -0.625740350312D-09 0.100000000000D+01 0.234100000000D+04 0.000000000000D+00
    0.200000000000D+01 0.000000000000D+00 0.558793544769D-08 0.280000000000D+02
    0.504280000000D+05 0.400000000000D+01 0.000000000000D+00 0.000000000000D+00
26 24 11 17 16  0  0.0 0.229580327868D-04-0.130739863380D-10 0.000000000000D+00
    0.133000000000D+03 0.390312500000D+02 0.499842249007D-08-0.101301631277D+01
    0.198185443878D-05 0.957310642116D-02 0.103209167719D-04 0.515373165131D+04
    0.576000000000D+05 0.275671482086D-06 0.299439883671D+01 0.104308128357D-06
    0.930571017469D+00 0.165062500000D+03 0.580956774999D+00-0.806640742682D-08
   -0.673599486694D-09 0.100000000000D+01 0.234100000000D+04 0.000000000000D+00
    0.200000000000D+01 0.000000000000D+00 0.651925802231D-08 0.133000000000D+03
    0.572310000000D+05 0.400000000000D+01 0.000000000000D+00 0.000000000000D+00
27 24 11 17 16  0  0.0-0.346903689206D-04 0.113686837722D-12 0.000000000000D+00
    0.970000000000D+02 0.151312500000D+03 0.427267797419D-08-0.278420759070D+01
    0.781938433647D-05 0.128371772589D-01 0.457465648651D-05 0.515368786621D+04
    0.576000000000D+05 0.465661287308D-07-0.216605988470D+01-0.931322574615D-07
    0.959565652961D+00 0.291375000000D+03 0.800858335787D+00-0.786925635754D-08
    0.225723688012D-09 0.100000000000D+01 0.234100000000D+04 0.000000000000D+00
    0.200000000000D+01 0.000000000000D+00 0.186264514923D-08 0.970000000000D+02
    0.504180000000D+05 0.400000000000D+01 0.000000000000D+00 0.000000000000D+00
28 24 11 17 16  0  0.0-0.481813680381D-03-0.117097442853D-10 0.000000000000D+00
    0.820000000000D+02-0.113125000000D+02 0.505378193887D-08-0.542874463140D+00
   -0.501051545143D-06 0.464671058580D-03 0.535137951374D-05 0.515374642754D+04
    0.576000000000D+05-0.335276126862D-07 0.200163514574D+01-0.931322574615D-07
    0.961042644312D+00 0.273531250000D+03 0.140792395750D+01-0.813105297671D-08
   -0.302869758598D-09 0.100000000000D+01 0.234100000000D+04 0.000000000000D+00
    0.200000000000D+01 0.000000000000D+00-0.931322574616D-08 0.820000000000D+02
    0.504180000000D+05 0.400000000000D+01 0.000000000000D+00 0.000000000000D+00
30 24 11 17 16  0  0.0-0.280008651316D-03 0.784439180279D-11 0.000000000000D+00
    0.310000000000D+02-0.114062500000D+02 0.569416575629D-08 0.499612416257D+00
   -0.471249222755D-06 0.715978106018D-02 0.529177486896D-05 0.515376515198D+04
    0.576000000000D+05-0.372529029846D-08 0.203074474757D+01 0.409781932831D-07
    0.935165168331D+00 0.261593750000D+03-0.246042822696D+01-0.854321300197D-08
   -0.326799326789D-09 0.100000000000D+01 0.234100000000D+04 0.000000000000D+00
    0.200000000000D+01 0.000000000000D+00 0.372529029846D-08 0.310000000000D+02
    0.517080000000D+05 0.400000000000D+01 0.000000000000D+00 0.000000000000D+00
31 24 11 17 16  0  0.0-0.221597962081D-03 0.682121026330D-12 0.000000000000D+00
    0.500000000000D+02-0.112187500000D+02 0.523593238331D-08-0.413927045609D+00
   -0.448897480965D-06 0.107120228931D-01 0.558234751225D-05 0.515357960510D+04
    0.576000000000D+05-0.223517417908D-07 0.205498734969D+01 0.150874257088D-06
    0.953945557650D+00 0.267812500000D+03 0.771279327428D+00-0.833356141200D-08
   -0.345728686702D-09 0.100000000000D+01 0.234100000000D+04 0.000000000000D+00
    0.200000000000D+01 0.000000000000D+00-0.130385160446D-07 0.500000000000D+02
    0.514980000000D+05 0.400000000000D+01 0.000000000000D+00 0.000000000000D+00
32 24 11 17 16  0  0.0-0.572413671762D-03 0.534328137292D-11 0.000000000000D+00
    0.490000000000D+02-0.262500000000D+01 0.456733310490D-08-0.216050459227D+01
   -0.162050127983D-06 0.801957701333D-02 0.905618071556D-05 0.515374749184D+04
    0.576000000000D+05 0.763684511185D-07 0.974950154450D+00-0.502914190292D-07
    0.963037202914D+00 0.203593750000D+03-0.213066851263D+01-0.770032074927D-08
    0.773960810003D-09 0.100000000000D+01 0.234100000000D+04 0.000000000000D+00
    0.200000000000D+01 0.000000000000D+00 0.931322574616D-09 0.490000000000D+02
    0.504180000000D+05 0.400000000000D+01 0.000000000000D+00 0.000000000000D+00
14 24 11 17 17 29 36.0 0.541794113815D-03 0.807176547823D-11 0.000000000000D+00
    0.220000000000D+03 0.632812500000D+02 0.470448167483D-08 0.564369563206D+00
    0.326521694660D-05 0.502004858572D-02 0.108014792204D-04 0.515370368004D+04
    0.629760000000D+05 0.316649675369D-07 0.310136846435D+01-0.242143869400D-07
    0.945107147895D+00 0.160250000000D+03-0.286118591286D+01-0.796104589523D-08
   -0.725387358152D-09 0.100000000000D+01 0.234100000000D+04 0.000000000000D+00
    0.200000000000D+01 0.000000000000D+00-0.791624200000D-08 0.732000000000D+03
    0.558600000000D+05 0.400000000000D+01 0.000000000000D+00 0.000000000000D+00
23 24 11 17 17 29 36.0 0.365227460861D-03 0.795807864051D-11 0.000000000000D+00
    0.500000000000D+02-0.135375000000D+03 0.372372653673D-08 0.106339804986D+01
   -0.710226595402D-05 0.490466877818D-02 0.842288136482D-05 0.515362759399D+04
    0.629760000000D+05-0.447034835815D-07-0.883003923058D-01 0.931322574615D-07
    0.982122941271D+00 0.230125000000D+03-0.290425474777D+01-0.763317509524D-08
    0.314298806093D-10 0.100000000000D+01 0.234100000000D+04 0.000000000000D+00
    0.200000000000D+01 0.000000000000D+00-0.838190317154D-08 0.306000000000D+03
    0.558270000000D+05 0.400000000000D+01 0.000000000000D+00 0.000000000000D+00
 3 24 11 17 17 59 28.0 0.602408777922D-03 0.100044417195D-10 0.000000000000D+00
    0.290000000000D+02-0.137687500000D+03 0.356657713368D-08 0.111759394062D+01
   -0.728666782379D-05 0.566447433084D-02 0.913068652153D-05 0.515363147354D+04
    0.647680000000D+05-0.726431608200D-07-0.559696467433D-01 0.931322574616D-08
    0.987373399608D+00 0.215156250000D+03 0.115744738984D+01-0.763138930657D-08
    0.457161899771D-10 0.100000000000D+01 0.234100000000D+04 0.000000000000D+00
    0.200000000000D+01 0.000000000000D+00 0.139698386192D-08 0.290000000000D+02
    0.646680000000D+05 0.400000000000D+01 0.000000000000D+00 0.000000000000D+00
29 24 11 17 17 59 28.0-0.563061796129D-03 0.284217094304D-11 0.000000000000D+00
    0.700000000000D+01 0.147656250000D+03 0.425767734935D-08-0.190473643925D+01
    0.760704278946D-05 0.288158236072D-02 0.460073351860D-05 0.515374957657D+04
    0.647680000000D+05-0.502914190292D-07-0.208115953784D+01-0.204890966415D-07
    0.968734946990D+00 0.294281250000D+03 0.267467018195D+01-0.807747931658D-08
    0.153220667970D-09 0.100000000000D+01 0.234100000000D+04 0.000000000000D+00
    0.200000000000D+01 0.000000000000D+00-0.977888703346D-08 0.700000000000D+01
    0.636670000000D+05 0.400000000000D+01 0.000000000000D+00 0.000000000000D+00
 2 24 11 17 17 59 44.0-0.312394928187D-03 0.852651282912D-11 0.000000000000D+00
    0.105000000000D+03-0.295937500000D+02 0.454626079858D-08-0.166408179386D+01
   -0.108033418655D-05 0.164100525435D-01 0.223517417908D-07 0.515367942238D+04
    0.647840000000D+05-0.229105353355D-06-0.119377662406D+01 0.240281224251D-06
    0.966513567330D+00 0.385500000000D+03-0.109954683752D+01-0.846499545818D-08
   -0.150006248362D-10 0.100000000000D+01 0.234100000000D+04 0.000000000000D+00
    0.200000000000D+01 0.000000000000D+00-0.176951289177D-07 0.105000000000D+03
    0.620460000000D+05 0.400000000000D+01 0.000000000000D+00 0.000000000000D+00
